STARLINK-1331           
1 45578U 20025AZ  25176.22642236  .00000729  00000+0  67811-4 0  9990
2 45578  53.0540 152.4140 0001410  86.5695 273.5455 15.06402722286107
STARLINK-1333           
1 45580U 20025BB  25176.23289252 -.00000174  00000+0  71977-5 0  9993
2 45580  53.0542 162.3899 0001244  86.2406 273.8725 15.06390261285976
STARLINK-1335           
1 45581U 20025BC  25176.37017621  .00000189  00000+0  31618-4 0  9990
2 45581  53.0548 151.7678 0002212  82.7657 277.3584 15.06396417286124
STARLINK-1337           
1 45582U 20025BD  25176.19326677  .00000921  00000+0  80681-4 0  9993
2 45582  53.0546 152.5642 0001300  96.2073 263.9064 15.06402343286098
STARLINK-1347           
1 45586U 20025BH  25175.98683924  .00000738  00000+0  68395-4 0  9998
2 45586  53.0560 153.4875 0001350  82.1176 277.9966 15.06408064286057
STARLINK-1349           
1 45587U 20025BJ  25176.00003472  .00091981  00000+0  85960-3 0  9993
2 45587  53.0531 144.2481 0003508 120.0863 103.7248 15.66544388286201
STARLINK-1360           
1 45588U 20025BK  25176.20462507  .00023830  00000+0  30930-3 0  9999
2 45588  53.0519 110.1584 0004471  65.6592 294.4886 15.58727568286690
STARLINK-1364           
1 45589U 20025BL  25176.19693593  .00000333  00000+0  41277-4 0  9999
2 45589  53.0548 152.5457 0001372  82.5689 277.5456 15.06398221286096
STARLINK-1365           
1 45590U 20025BM  25176.01355942  .00000620  00000+0  60474-4 0  9994
2 45590  53.0534 183.3740 0001106  73.1747 286.9363 15.06399371285655
STARLINK-1443           
1 45660U 20035D   25176.19785548  .00000038  00000+0  21458-4 0  9993
2 45660  53.0532 142.5428 0001351  74.6044 285.5094 15.06401151279513
STARLINK-1446           
1 45663U 20035G   25176.16156904  .00030615  00000+0  12817-2 0  9992
2 45663  53.0289 125.1245 0001680 129.7111 230.4034 15.23321295279759
STARLINK-1448           
1 45665U 20035J   25176.20155254  .00000780  00000+0  71256-4 0  9990
2 45665  53.0544 142.5261 0001333  86.2244 273.8898 15.06402401279518
STARLINK-1451           
1 45668U 20035M   25176.27160779 -.00009313  00000+0 -60660-3 0  9997
2 45668  53.0530 142.5287 0001514  92.9246 267.1916 15.06430866279525
STARLINK-1452           
1 45669U 20035N   25176.18502876  .00023283  00000+0  11962-2 0  9996
2 45669  53.0520 136.5963 0005955 355.0002   5.0931 15.16388954279588
STARLINK-1453           
1 45670U 20035P   25176.21536470 -.00000045  00000+0  15898-4 0  9995
2 45670  53.0549 112.4640 0001457  91.5636 268.5520 15.06399012279939
STARLINK-1454           
1 45671U 20035Q   25176.16101043 -.00001199  00000+0 -61631-4 0  9992
2 45671  53.0553 142.7061 0001053  72.8022 287.3082 15.06386664279505
STARLINK-1456           
1 45673U 20035S   25176.17574454  .00002836  00000+0  20910-3 0  9996
2 45673  53.0530 142.6404 0001337  88.7543 271.3599 15.06413338279517
STARLINK-1457           
1 45674U 20035T   25176.18311403  .00000915  00000+0  80300-4 0  9997
2 45674  53.0538 142.6114 0001178  85.2805 274.8318 15.06410000279521
STARLINK-1458           
1 45675U 20035U   25176.17205758  .00000472  00000+0  50549-4 0  9992
2 45675  53.0534 142.6588 0001319  80.7700 279.3438 15.06397064279509
STARLINK-1460           
1 45676U 20035V   25176.20891599  .00000807  00000+0  73049-4 0  9993
2 45676  53.0542 142.4922 0001485  89.5226 270.5933 15.06405065279518
STARLINK-1392           
1 45677U 20035W   25175.95457919  .00000762  00000+0  70024-4 0  9999
2 45677  53.0540 143.6319 0001256  78.0015 282.1114 15.06402758279476
STARLINK-1394           
1 45679U 20035Y   25176.15087839  .00000080  00000+0  24299-4 0  9990
2 45679  53.0509 132.7513 0001498  93.0297 267.0863 15.06392667279655
STARLINK-1402           
1 45685U 20035AE  25176.24798207  .00000312  00000+0  39823-4 0  9992
2 45685  53.0551 126.7366 0001443  86.4989 273.6165 15.06402081279742
STARLINK-1404           
1 45686U 20035AF  25175.91127715 -.00000130  00000+0  10147-4 0  9993
2 45686  53.0545 133.8319 0001397  87.1799 272.9350 15.06395418280024
STARLINK-1413           
1 45689U 20035AJ  25175.59797607  .00000480  00000+0  51130-4 0  9997
2 45689  53.0545 135.2341 0001385  85.0588 275.0559 15.06396713279569
STARLINK-1417           
1 45693U 20035AN  25176.25775430 -.00000017  00000+0  17729-4 0  9999
2 45693  53.0527 132.2769 0001397  92.0345 268.0804 15.06398720279663
STARLINK-1420           
1 45695U 20035AQ  25176.52406128 -.00000295  00000+0 -83075-6 0  9994
2 45695  53.0562 111.0702 0003699 100.9094 259.2312 15.06388715279987
STARLINK-1422           
1 45696U 20035AR  25176.13612153 -.00000534  00000+0 -16927-4 0  9995
2 45696  53.0545 132.8227 0001538  91.8527 268.2639 15.06395591279646
STARLINK-1351           
1 45697U 20035AS  25176.11215610  .00000582  00000+0  57972-4 0  9997
2 45697  53.0553 112.9265 0001504  93.0156 267.1005 15.06403428279927
STARLINK-1398           
1 45699U 20035AU  25176.20499131  .00046440  00000+0  14634-2 0  9990
2 45699  53.0558 102.5277 0003139 126.0639 234.0652 15.32464680280111
STARLINK-1400           
1 45700U 20035AV  25176.21905075  .00000208  00000+0  32871-4 0  9990
2 45700  53.0554 112.4472 0001450  89.6225 270.4930 15.06399794279931
STARLINK-1403           
1 45701U 20035AW  25176.11584142  .00000270  00000+0  37021-4 0  9999
2 45701  53.0552 112.9085 0001517  94.4737 265.6426 15.06401737279938
STARLINK-1407           
1 45703U 20035AY  25176.18991156  .00037648  00000+0  14250-2 0  9991
2 45703  53.0439  94.6803 0007473   1.5330 358.5689 15.26575464280186
STARLINK-1411           
1 45706U 20035BB  25176.20430422  .00000607  00000+0  59646-4 0  9996
2 45706  53.0555 112.5148 0001330  94.2737 265.8404 15.06401919279933
STARLINK-1423           
1 45710U 20035BF  25175.54452910  .00001412  00000+0  11369-3 0  9997
2 45710  53.0556 115.4746 0001437  98.2754 261.8398 15.06386038280244
STARLINK-1433           
1 45711U 20035BG  25176.52130396  .00000134  00000+0  27871-4 0  9994
2 45711  53.0548 111.0915 0001520  87.2272 272.8891 15.06390911279986
STARLINK-1434           
1 45712U 20035BH  25175.24526386  .00015575  00000+0  10336-2 0  9992
2 45712  53.0536 116.6994 0002539 101.8036 258.3238 15.07413681280206
STARLINK-1465           
1 45731U 20038B   25176.42177683  .00000908  00000+0  79860-4 0  9992
2 45731  53.0565 311.5405 0001110  93.8112 266.3004 15.06401552278380
STARLINK-1471           
1 45735U 20038F   25175.64660242  .00008947  00000+0  26939-3 0  9996
2 45735  53.0537 283.5084 0001995 100.4246 259.6980 15.35128120277744
STARLINK-1474           
1 45738U 20038J   25176.50718089  .00017705  00000+0  28380-3 0  9992
2 45738  53.0420 256.1340 0001113 204.0744 156.0214 15.53194602279329
STARLINK-1475           
1 45739U 20038K   25176.14614528  .00055871  00000+0  13502-2 0  9991
2 45739  53.0573 220.8495 0006309 319.2581  40.7950 15.40626608279630
STARLINK-1480           
1 45741U 20038M   25175.80623012 -.00000148  00000+0  89548-5 0  9998
2 45741  53.0561 314.3012 0001305 103.8850 256.2284 15.06395649277330
STARLINK-1481           
1 45742U 20038N   25175.91668981  .00155861  00000+0  92040-3 0  9996
2 45742  53.0436 252.7657 0011766 291.5686  65.0119 15.77086956  5963
STARLINK-1500           
1 45744U 20038Q   25176.07175362  .00008025  00000+0  35502-3 0  9991
2 45744  53.0483 308.4099 0000882 125.2124 234.8955 15.22559505278357
STARLINK-1504           
1 45746U 20038S   25175.99119199  .00010323  00000+0  37300-3 0  9991
2 45746  53.0321 281.7701 0002740 120.5898 239.5372 15.29050928278722
STARLINK-1506           
1 45747U 20038T   25176.35667970  .00009473  00000+0  48971-3 0  9998
2 45747  53.0539 304.4886 0003124 183.0117 177.0858 15.16923319278438
STARLINK-1464           
1 45751U 20038X   25175.74173101  .00000020  00000+0  20232-4 0  9993
2 45751  53.0564 294.5894 0000868  98.4006 261.7081 15.06395336277605
STARLINK-1476           
1 45753U 20038Z   25175.91668981  .00110240  00000+0  98461-3 0  9993
2 45753  53.0298 237.7032 0006153 332.5586 181.2660 15.67569616  6006
STARLINK-1477           
1 45754U 20038AA  25176.28723849  .00000673  00000+0  64060-4 0  9997
2 45754  53.0541 292.1426 0001388  94.4917 265.6231 15.06403033278642
STARLINK-1478           
1 45755U 20038AB  25176.04027764  .00000334  00000+0  41275-4 0  9992
2 45755  53.0546 293.2534 0001041  97.1607 262.9500 15.06406093278752
STARLINK-1484           
1 45756U 20038AC  25176.20018290  .00052569  00000+0  12359-2 0  9991
2 45756  53.0200 238.2451 0001100 262.0439  98.0440 15.41500737279547
STARLINK-1487           
1 45758U 20038AE  25176.21903780  .00087333  00000+0  44724-3 0  9990
2 45758  53.0202 119.3656 0003888  47.6938 312.4411 15.80582633281208
STARLINK-1493           
1 45759U 20038AF  25175.69749427  .00001085  00000+0  91755-4 0  9995
2 45759  53.0567 294.7918 0001124  82.4320 277.6797 15.06394431277585
STARLINK-1494           
1 45760U 20038AG  25176.03291463  .00001538  00000+0  12216-3 0  9995
2 45760  53.0561 293.2853 0001135  85.6216 274.4903 15.06396415278561
STARLINK-1502           
1 45764U 20038AL  25175.73067274  .00000491  00000+0  51828-4 0  9996
2 45764  53.0550 294.6407 0001252  89.1717 270.9415 15.06395986277603
STARLINK-1470           
1 45772U 20038AU  25176.52286046  .00009229  00000+0  57545-3 0  9992
2 45772  53.0528 269.9418 0003550 251.3344 108.7261 15.10201171279129
STARLINK-1482           
1 45773U 20038AV  25176.55815459  .00001327  00000+0  10793-3 0  9997
2 45773  53.0537 270.9279 0001137  86.9630 273.1489 15.06404950278961
STARLINK-1485           
1 45774U 20038AW  25175.62359554  .00017480  00000+0  27956-3 0  9990
2 45774  53.0569 261.9630 0006537 308.2670  51.7750 15.53252472278043
STARLINK-1491           
1 45778U 20038BA  25175.34346299  .00094463  00000+0  49465-3 0  9990
2 45778  53.0322 200.4554 0007599 325.3752  34.6773 15.80035092278870
